{"type":"Feature","geometry":{"type":"Polygon","coordinates":[[[-83.988,36.589],[-86.493,36.652],[-87.853,36.633],[-87.85,36.664],[-88.071,36.678],[-88.053,36.497],[-89.301,36.507],[-89.472,36.458],[-89.539,36.498],[-89.513,36.36],[-89.62,36.323],[-89.535,36.253],[-89.706,36.239],[-89.592,36.15],[-89.733,36.001],[-89.645,35.887],[-89.745,35.911],[-89.773,35.866],[-89.699,35.819],[-89.958,35.727],[-89.925,35.658],[-89.851,35.658],[-89.958,35.589],[-89.905,35.519],[-90.031,35.554],[-90.003,35.43],[-90.054,35.389],[-90.108,35.477],[-90.179,35.385],[-90.08,35.384],[-90.169,35.28],[-90.091,35.245],[-90.117,35.188],[-90.067,35.138],[-90.163,35.125],[-90.207,35.026],[-90.292,35.041],[-90.31,35.001],[-84.322,34.988],[-84.29,35.225],[-84.224,35.269],[-84.053,35.27],[-84.023,35.412],[-83.88,35.519],[-83.755,35.565],[-83.499,35.563],[-83.16,35.765],[-82.992,35.774],[-82.896,35.879],[-82.92,35.929],[-82.805,35.927],[-82.776,36.001],[-82.637,36.066],[-82.591,36.034],[-82.611,35.967],[-82.558,35.954],[-82.353,36.116],[-82.213,36.159],[-82.129,36.104],[-82.034,36.12],[-81.855,36.337],[-81.707,36.335],[-81.742,36.412],[-81.647,36.612],[-83.988,36.589]]]},"properties":{"GEOID":"47","STUSAB":"TN","NAME":"Tennessee"}}
